NORAD_CAT_ID,OBJECT_NAME,OBJECT_TYPE,EPOCH,MEAN_MOTION,ECCENTRICITY,INCLINATION,RA_OF_ASC_NODE,ARG_OF_PERICENTER,MEAN_ANOMALY,BSTAR,MEAN_MOTION_DOT,MEAN_MOTION_DDOT,TLE_LINE0,TLE_LINE1,TLE_LINE2,SEMIMAJOR_AXIS,PERIOD,APOGEE,PERIGEE,DECAYED
51112.0,STARLINK-3374,PAYLOAD,2024-06-03 10:41:20,15.08818569,0.0001171,53.217,301.2175,77.7698,282.3426,-0.00050457,-8.304e-05,0.0,0 STARLINK-3374,1 51112U 22005J   24155.44537555 -.00008304  00000-0 -50457-3 0  9995,2 51112  53.2170 301.2175 0001171  77.7698 282.3426 15.08818569132737,6917.946,95.439,540.621,539.001,0.0
51112.0,STARLINK-3374,PAYLOAD,2024-06-04 02:35:12,15.08831655,0.0002112,53.2189,298.2445,83.3035,276.8198,-0.0001517,-2.701e-05,0.0,0 STARLINK-3374,1 51112U 22005J   24156.10778705 -.00002701  00000-0 -15170-3 0  9991,2 51112  53.2189 298.2445 0002112  83.3035 276.8198 15.08831655132832,6917.906,95.438,541.232,538.31,0.0
51112.0,STARLINK-3374,PAYLOAD,2024-06-04 08:56:44,15.08826717,6.94e-05,53.216,297.0537,72.0379,288.0689,5.971e-05,6.62e-06,0.0,0 STARLINK-3374,1 51112U 22005J   24156.37274002  .00000662  00000-0  59710-4 0  9992,2 51112  53.2160 297.0537 0000694  72.0379 288.0689 15.08826717131763,6917.921,95.438,540.266,539.306,0.0
51112.0,STARLINK-3374,PAYLOAD,2024-06-05 02:25:59,15.08835904,0.000119,53.2189,293.7866,87.8686,272.2442,0.00047442,7.27e-05,0.0,0 STARLINK-3374,1 51112U 22005J   24157.10138041  .00007270  00000-0  47442-3 0  9996,2 51112  53.2189 293.7866 0001190  87.8686 272.2442 15.08835904132984,6917.893,95.438,540.581,538.935,0.0
51112.0,STARLINK-3374,PAYLOAD,2024-06-05 15:09:05,15.08831447,0.0001938,53.2109,291.405,89.5619,270.5595,0.00032837,4.941e-05,0.0,0 STARLINK-3374,1 51112U 22005J   24157.63130870  .00004941  00000-0  32837-3 0  9990,2 51112  53.2109 291.4050 0001938  89.5619 270.5595 15.08831447131955,6917.907,95.438,541.112,538.431,0.0
51112.0,STARLINK-3374,PAYLOAD,2024-06-05 18:19:51,15.08827686,9.94e-05,53.2157,290.8095,98.9033,261.2072,6.1129e-05,6.85e-06,0.0,0 STARLINK-3374,1 51112U 22005J   24157.76378807  .00000685  00000-0  61129-4 0  9996,2 51112  53.2157 290.8095 0000994  98.9033 261.2072 15.08827686133088,6917.918,95.438,540.471,539.095,0.0
51112.0,STARLINK-3374,PAYLOAD,2024-06-06 02:16:47,15.08832271,0.0001348,53.2111,289.3229,94.3581,265.7565,-8.4892e-05,-1.638e-05,0.0,0 STARLINK-3374,1 51112U 22005J   24158.09498999 -.00001638  00000-0 -84892-4 0  9991,2 51112  53.2111 289.3229 0001348  94.3581 265.7565 15.08832271132027,6917.904,95.438,540.702,538.836,0.0
51112.0,STARLINK-3374,PAYLOAD,2024-06-07 08:29:06,15.08840651,0.0001241,53.2106,283.6709,105.1843,254.9286,0.00031089,4.663e-05,0.0,0 STARLINK-3374,1 51112U 22005J   24159.35355091  .00004663  00000-0  31089-3 0  9994,2 51112  53.2106 283.6709 0001241 105.1843 254.9286 15.08840651133320,6917.878,95.438,540.602,538.885,0.0
51112.0,STARLINK-3374,PAYLOAD,2024-06-07 14:50:39,15.08849301,0.0001177,53.2155,282.4838,90.5647,269.548,0.0003671,5.561e-05,0.0,0 STARLINK-3374,1 51112U 22005J   24159.61850850  .00005561  00000-0  36710-3 0  9990,2 51112  53.2155 282.4838 0001177  90.5647 269.5480 15.08849301132251,6917.852,95.437,540.531,538.903,0.0
51112.0,STARLINK-3374,PAYLOAD,2024-06-08 14:41:25,15.08857703,9.94e-05,53.2155,278.0215,88.217,271.8936,0.00034394,5.193e-05,0.0,0 STARLINK-3374,1 51112U 22005J   24160.61210201  .00005193  00000-0  34394-3 0  9999,2 51112  53.2155 278.0215 0000994  88.2170 271.8936 15.08857703132406,6917.826,95.436,540.379,539.004,0.0
51112.0,STARLINK-3374,PAYLOAD,2024-06-08 16:16:48,15.0886185,0.0001193,53.2168,277.7253,88.3899,271.7229,0.00033347,5.026e-05,0.0,0 STARLINK-3374,1 51112U 22005J   24160.67834017  .00005026  00000-0  33347-3 0  9994,2 51112  53.2168 277.7253 0001193  88.3899 271.7229 15.08861850133525,6917.814,95.436,540.504,538.853,0.0
51112.0,STARLINK-3374,PAYLOAD,2024-06-09 00:13:44,15.08839396,0.0001422,53.2163,276.2395,87.1249,272.9906,-0.0001015,-1.903e-05,0.0,0 STARLINK-3374,1 51112U 22005J   24161.00954820 -.00001903  00000-0 -10150-3 0  9996,2 51112  53.2163 276.2395 0001422  87.1249 272.9906 15.08839396133572,6917.882,95.438,540.731,538.764,0.0
51112.0,STARLINK-3374,PAYLOAD,2024-06-09 14:32:13,15.08836571,0.0001202,53.2182,273.5685,105.3943,254.7182,-7.829e-05,-1.533e-05,0.0,0 STARLINK-3374,1 51112U 22005J   24161.60571091 -.00001533  00000-0 -78290-4 0  9996,2 51112  53.2182 273.5685 0001202 105.3943 254.7182 15.08836571132558,6917.891,95.438,540.587,538.924,0.0
51112.0,STARLINK-3374,PAYLOAD,2024-06-10 12:47:37,15.08848596,0.0001287,53.2171,269.4038,112.3308,247.7821,0.0005743,8.866e-05,0.0,0 STARLINK-3374,1 51112U 22005J   24162.53306943  .00008866  00000-0  57430-3 0  9997,2 51112  53.2171 269.4038 0001287 112.3308 247.7821 15.08848596133809,6917.854,95.437,540.609,538.829,0.0
51112.0,STARLINK-3374,PAYLOAD,2024-06-10 14:23:00,15.08853773,0.0001257,53.2171,269.1064,111.6964,248.4162,0.00067464,0.00010469,0.0,0 STARLINK-3374,1 51112U 22005J   24162.59930812  .00010469  00000-0  67464-3 0  9991,2 51112  53.2171 269.1064 0001257 111.6964 248.4162 15.08853773132709,6917.838,95.437,540.573,538.834,0.0
51112.0,STARLINK-3374,PAYLOAD,2024-06-11 14:13:47,15.08836944,0.0001274,53.217,264.6432,83.0507,277.063,1.7282e-05,-1.3e-07,0.0,0 STARLINK-3374,1 51112U 22005J   24163.59291256 -.00000013  00000-0  17282-4 0  9993,2 51112  53.2170 264.6432 0001274  83.0507 277.0630 15.08836944132856,6917.89,95.438,540.636,538.873,0.0
51112.0,STARLINK-3374,PAYLOAD,2024-06-12 06:07:39,15.08830426,0.0001498,53.2163,261.6725,57.2356,302.878,-6.2002e-06,-3.87e-06,0.0,0 STARLINK-3374,1 51112U 22005J   24164.25532031 -.00000387  00000-0 -62002-5 0  9992,2 51112  53.2163 261.6725 0001498  57.2356 302.8780 15.08830426134060,6917.91,95.438,540.811,538.738,0.0
51112.0,STARLINK-3374,PAYLOAD,2024-06-12 14:04:35,15.08831579,0.0001458,53.2167,260.1861,52.217,307.8954,1.657e-05,-2.4e-07,0.0,0 STARLINK-3374,1 51112U 22005J   24164.58652240 -.00000024  00000-0  16570-4 0  9998,2 51112  53.2167 260.1861 0001458  52.2170 307.8954 15.08831579133005,6917.906,95.438,540.78,538.762,0.0
51112.0,STARLINK-3374,PAYLOAD,2024-06-13 12:19:59,15.08843575,9.4e-05,53.2152,256.0216,83.8519,276.2581,0.00030858,4.627e-05,0.0,0 STARLINK-3374,1 51112U 22005J   24165.51387943  .00004627  00000-0  30858-3 0  9993,2 51112  53.2152 256.0216 0000940  83.8519 276.2581 15.08843575134251,6917.869,95.437,540.385,539.084,0.0
51112.0,STARLINK-3374,PAYLOAD,2024-06-14 12:10:46,15.08841087,0.0001083,53.2161,251.5589,99.3173,260.7941,0.00011498,1.543e-05,0.0,0 STARLINK-3374,1 51112U 22005J   24166.50748133  .00001543  00000-0  11498-3 0  9998,2 51112  53.2161 251.5589 0001083  99.3173 260.7941 15.08841087133298,6917.877,95.437,540.491,538.993,0.0
51112.0,STARLINK-3374,PAYLOAD,2024-06-15 12:01:32,15.08853015,0.0001137,53.2159,247.0985,100.4069,259.7051,0.00020313,2.948e-05,0.0,0 STARLINK-3374,1 51112U 22005J   24167.50107293  .00002948  00000-0  20313-3 0  9991,2 51112  53.2159 247.0985 0001137 100.4069 259.7051 15.08853015134557,6917.841,95.437,540.492,538.919,0.0
51112.0,STARLINK-3374,PAYLOAD,2024-06-15 15:12:18,15.08854363,0.0001135,53.2158,246.5036,100.0878,260.0242,0.00021416,3.123e-05,0.0,0 STARLINK-3374,1 51112U 22005J   24167.63355136  .00003123  00000-0  21416-3 0  9997,2 51112  53.2158 246.5036 0001135 100.0878 260.0242 15.08854363133462,6917.836,95.437,540.487,538.916,0.0
51112.0,STARLINK-3374,PAYLOAD,2024-06-16 11:52:19,15.08855843,9.1e-05,53.2139,242.6397,90.0448,270.0648,0.00027274,4.057e-05,0.0,0 STARLINK-3374,1 51112U 22005J   24168.49466535  .00004057  00000-0  27274-3 0  9993,2 51112  53.2139 242.6397 0000910  90.0448 270.0648 15.08855843133598,6917.832,95.437,540.326,539.067,0.0
51112.0,STARLINK-3374,PAYLOAD,2024-06-16 21:24:38,15.08843395,0.0001056,53.216,240.8535,85.3416,274.7696,7.3491e-06,-1.71e-06,0.0,0 STARLINK-3374,1 51112U 22005J   24168.89210947 -.00000171  00000-0  73491-5 0  9999,2 51112  53.2160 240.8535 0001056  85.3416 274.7696 15.08843395133650,6917.87,95.437,540.466,539.004,0.0
51112.0,STARLINK-3374,PAYLOAD,2024-06-17 21:15:26,15.08832032,0.0001064,53.2167,236.3959,102.5738,257.5373,-0.00013661,-2.461e-05,0.0,0 STARLINK-3374,1 51112U 22005J   24169.88571829 -.00002461  00000-0 -13661-3 0  9994,2 51112  53.2167 236.3959 0001064 102.5738 257.5373 15.08832032133809,6917.905,95.438,540.506,539.034,0.0
51112.0,STARLINK-3374,PAYLOAD,2024-06-18 11:33:54,15.08840611,0.0001059,53.216,233.7197,103.0148,257.0962,2.5128e-05,1.12e-06,0.0,0 STARLINK-3374,1 51112U 22005J   24170.48187627  .00000112  00000-0  25128-4 0  9992,2 51112  53.2160 233.7197 0001059 103.0148 257.0962 15.08840611135007,6917.879,95.438,540.476,539.011,0.0
51112.0,STARLINK-3374,PAYLOAD,2024-06-19 13:00:04,15.08838691,9.09e-05,53.2138,228.961,103.7154,256.3939,0.00023635,3.476e-05,0.0,0 STARLINK-3374,1 51112U 22005J   24171.54172394  .00003476  00000-0  23635-3 0  9991,2 51112  53.2138 228.9610 0000909 103.7154 256.3939 15.08838691135163,6917.884,95.438,540.378,539.121,0.0
51112.0,STARLINK-3374,PAYLOAD,2024-06-20 12:50:51,15.08846497,0.0001029,53.2146,224.5009,79.3861,280.7247,0.00019451,2.81e-05,0.0,0 STARLINK-3374,1 51112U 22005J   24172.53532280  .00002810  00000-0  19451-3 0  9997,2 51112  53.2146 224.5009 0001029  79.3861 280.7247 15.08846497134203,6917.861,95.437,540.437,539.014,0.0
51112.0,STARLINK-3374,PAYLOAD,2024-06-21 03:09:20,15.08843636,0.0001081,53.2146,221.8229,86.5442,273.5674,0.00013303,1.83e-05,0.0,0 STARLINK-3374,1 51112U 22005J   24173.13148403  .00001830  00000-0  13303-3 0  9995,2 51112  53.2146 221.8229 0001081  86.5442 273.5674 15.08843636135409,6917.869,95.437,540.482,538.986,0.0
51112.0,STARLINK-3374,PAYLOAD,2024-06-21 09:30:52,15.08844394,0.0001081,53.2147,220.6335,85.8644,274.2472,0.00012854,1.759e-05,0.0,0 STARLINK-3374,1 51112U 22005J   24173.39644336  .00001759  00000-0  12854-3 0  9999,2 51112  53.2147 220.6335 0001081  85.8644 274.2472 15.08844394134338,6917.867,95.437,540.48,538.984,0.0
